{
  "type": "FeatureCollection",
  "features": [
    {
      "type": "Feature",
      "properties": {
        "name": "Hiware Bazar Watershed",
        "area_sq_km": 18.5,
        "basin_id": "hiware_bazar",
        "state": "Maharashtra"
      },
      "geometry": {
        "type": "Polygon",
        "coordinates": [
          [
            [
              74.535,
              19.37
            ],
            [
              74.545,
              19.375
            ],
            [
              74.56,
              19.372
            ],
            [
              74.572,
              19.362
            ],
            [
              74.575,
              19.35
            ],
            [
              74.57,
              19.338
            ],
            [
              74.558,
              19.33
            ],
            [
              74.545,
              19.328
            ],
            [
              74.535,
              19.332
            ],
            [
              74.528,
              19.34
            ],
            [
              74.525,
              19.352
            ],
            [
              74.53,
              19.365
            ],
            [
              74.535,
              19.37
            ]
          ]
        ]
      }
    }
  ]
}